CCSDS_OMM_VERS = 2.0
CREATION_DATE  = 
ORIGINATOR     = 

OBJECT_NAME    = STARLINK-36673
OBJECT_ID      = 2026-022N
CENTER_NAME    = EARTH
REF_FRAME      = TEME
TIME_SYSTEM    = UTC
MEAN_ELEMENT_THEORY = SGP/SGP4

EPOCH          = 2026-02-22T03:32:52.718496
MEAN_MOTION    = 15.75198261
ECCENTRICITY   = .0001437
INCLINATION    = 97.2848
RA_OF_ASC_NODE = 86.3772
ARG_OF_PERICENTER = 96.6789
MEAN_ANOMALY   = 263.4640

EPHEMERIS_TYPE = 0
CLASSIFICATION_TYPE = U
NORAD_CAT_ID   = 67660
ELEMENT_SET_NO = 999
REV_AT_EPOCH   = 310
BSTAR          = .69345E-3
MEAN_MOTION_DOT = .104615E-2
MEAN_MOTION_DDOT = 0

CCSDS_OMM_VERS = 2.0
CREATION_DATE  = 
ORIGINATOR     = 

OBJECT_NAME    = STARLINK-36674
OBJECT_ID      = 2026-022P
CENTER_NAME    = EARTH
REF_FRAME      = TEME
TIME_SYSTEM    = UTC
MEAN_ELEMENT_THEORY = SGP/SGP4

EPOCH          = 2026-02-22T03:30:50.705280
MEAN_MOTION    = 15.75211940
ECCENTRICITY   = .0001231
INCLINATION    = 97.2848
RA_OF_ASC_NODE = 86.3795
ARG_OF_PERICENTER = 67.4382
MEAN_ANOMALY   = 292.7013

EPHEMERIS_TYPE = 0
CLASSIFICATION_TYPE = U
NORAD_CAT_ID   = 67661
ELEMENT_SET_NO = 999
REV_AT_EPOCH   = 310
BSTAR          = .93401E-3
MEAN_MOTION_DOT = .141651E-2
MEAN_MOTION_DDOT = 0

CCSDS_OMM_VERS = 2.0
CREATION_DATE  = 
ORIGINATOR     = 

OBJECT_NAME    = STARLINK-36700
OBJECT_ID      = 2026-022Q
CENTER_NAME    = EARTH
REF_FRAME      = TEME
TIME_SYSTEM    = UTC
MEAN_ELEMENT_THEORY = SGP/SGP4

EPOCH          = 2026-02-22T03:27:47.791296
MEAN_MOTION    = 15.75217300
ECCENTRICITY   = .0001504
INCLINATION    = 97.2850
RA_OF_ASC_NODE = 86.3821
ARG_OF_PERICENTER = 74.4179
MEAN_ANOMALY   = 285.7252

EPHEMERIS_TYPE = 0
CLASSIFICATION_TYPE = U
NORAD_CAT_ID   = 67662
ELEMENT_SET_NO = 999
REV_AT_EPOCH   = 310
BSTAR          = .97047E-3
MEAN_MOTION_DOT = .14732E-2
MEAN_MOTION_DDOT = 0

CCSDS_OMM_VERS = 2.0
CREATION_DATE  = 
ORIGINATOR     = 

OBJECT_NAME    = STARLINK-36675
OBJECT_ID      = 2026-022R
CENTER_NAME    = EARTH
REF_FRAME      = TEME
TIME_SYSTEM    = UTC
MEAN_ELEMENT_THEORY = SGP/SGP4

EPOCH          = 2026-02-22T03:29:49.769088
MEAN_MOTION    = 15.75198892
ECCENTRICITY   = .0001433
INCLINATION    = 97.2849
RA_OF_ASC_NODE = 86.3805
ARG_OF_PERICENTER = 79.6557
MEAN_ANOMALY   = 280.4869

EPHEMERIS_TYPE = 0
CLASSIFICATION_TYPE = U
NORAD_CAT_ID   = 67663
ELEMENT_SET_NO = 999
REV_AT_EPOCH   = 310
BSTAR          = .66513E-3
MEAN_MOTION_DOT = .10029E-2
MEAN_MOTION_DDOT = 0

CCSDS_OMM_VERS = 2.0
CREATION_DATE  = 
ORIGINATOR     = 

OBJECT_NAME    = STARLINK-36404
OBJECT_ID      = 2026-022S
CENTER_NAME    = EARTH
REF_FRAME      = TEME
TIME_SYSTEM    = UTC
MEAN_ELEMENT_THEORY = SGP/SGP4

EPOCH          = 2026-02-22T03:25:15.278016
MEAN_MOTION    = 15.75222873
ECCENTRICITY   = .0001483
INCLINATION    = 97.2851
RA_OF_ASC_NODE = 86.3834
ARG_OF_PERICENTER = 107.0112
MEAN_ANOMALY   = 253.1316

EPHEMERIS_TYPE = 0
CLASSIFICATION_TYPE = U
NORAD_CAT_ID   = 67664
ELEMENT_SET_NO = 999
REV_AT_EPOCH   = 310
BSTAR          = .10079E-2
MEAN_MOTION_DOT = .153143E-2
MEAN_MOTION_DDOT = 0

CCSDS_OMM_VERS = 2.0
CREATION_DATE  = 
ORIGINATOR     = 

OBJECT_NAME    = STARLINK-36399
OBJECT_ID      = 2026-022T
CENTER_NAME    = EARTH
REF_FRAME      = TEME
TIME_SYSTEM    = UTC
MEAN_ELEMENT_THEORY = SGP/SGP4

EPOCH          = 2026-02-22T03:24:14.416128
MEAN_MOTION    = 15.75208430
ECCENTRICITY   = .000164
INCLINATION    = 97.2852
RA_OF_ASC_NODE = 86.3846
ARG_OF_PERICENTER = 109.4736
MEAN_ANOMALY   = 250.6706

EPHEMERIS_TYPE = 0
CLASSIFICATION_TYPE = U
NORAD_CAT_ID   = 67665
ELEMENT_SET_NO = 999
REV_AT_EPOCH   = 310
BSTAR          = .80259E-3
MEAN_MOTION_DOT = .121395E-2
MEAN_MOTION_DDOT = 0

CCSDS_OMM_VERS = 2.0
CREATION_DATE  = 
ORIGINATOR     = 

OBJECT_NAME    = STARLINK-36365
OBJECT_ID      = 2026-022U
CENTER_NAME    = EARTH
REF_FRAME      = TEME
TIME_SYSTEM    = UTC
MEAN_ELEMENT_THEORY = SGP/SGP4

EPOCH          = 2026-02-22T03:22:12.282816
MEAN_MOTION    = 15.75225296
ECCENTRICITY   = .000153
INCLINATION    = 97.2850
RA_OF_ASC_NODE = 86.3867
ARG_OF_PERICENTER = 96.4413
MEAN_ANOMALY   = 263.7026

EPHEMERIS_TYPE = 0
CLASSIFICATION_TYPE = U
NORAD_CAT_ID   = 67666
ELEMENT_SET_NO = 999
REV_AT_EPOCH   = 310
BSTAR          = .96812E-3
MEAN_MOTION_DOT = .147008E-2
MEAN_MOTION_DDOT = 0

CCSDS_OMM_VERS = 2.0
CREATION_DATE  = 
ORIGINATOR     = 

OBJECT_NAME    = STARLINK-36622
OBJECT_ID      = 2026-022V
CENTER_NAME    = EARTH
REF_FRAME      = TEME
TIME_SYSTEM    = UTC
MEAN_ELEMENT_THEORY = SGP/SGP4

EPOCH          = 2026-02-22T03:19:39.964800
MEAN_MOTION    = 15.75208924
ECCENTRICITY   = .0001624
INCLINATION    = 97.2850
RA_OF_ASC_NODE = 86.3890
ARG_OF_PERICENTER = 98.1738
MEAN_ANOMALY   = 261.9712

EPHEMERIS_TYPE = 0
CLASSIFICATION_TYPE = U
NORAD_CAT_ID   = 67667
ELEMENT_SET_NO = 999
REV_AT_EPOCH   = 310
BSTAR          = .80537E-3
MEAN_MOTION_DOT = .121825E-2
MEAN_MOTION_DDOT = 0

CCSDS_OMM_VERS = 2.0
CREATION_DATE  = 
ORIGINATOR     = 

OBJECT_NAME    = STARLINK-36625
OBJECT_ID      = 2026-022W
CENTER_NAME    = EARTH
REF_FRAME      = TEME
TIME_SYSTEM    = UTC
MEAN_ELEMENT_THEORY = SGP/SGP4

EPOCH          = 2026-02-22T03:17:38.026752
MEAN_MOTION    = 15.75199848
ECCENTRICITY   = .0001765
INCLINATION    = 97.2850
RA_OF_ASC_NODE = 86.3906
ARG_OF_PERICENTER = 76.8887
MEAN_ANOMALY   = 283.2575

EPHEMERIS_TYPE = 0
CLASSIFICATION_TYPE = U
NORAD_CAT_ID   = 67668
ELEMENT_SET_NO = 999
REV_AT_EPOCH   = 310
BSTAR          = .64208E-3
MEAN_MOTION_DOT = .96776E-3
MEAN_MOTION_DDOT = 0

CCSDS_OMM_VERS = 2.0
CREATION_DATE  = 
ORIGINATOR     = 

OBJECT_NAME    = STARLINK-36639
OBJECT_ID      = 2026-022X
CENTER_NAME    = EARTH
REF_FRAME      = TEME
TIME_SYSTEM    = UTC
MEAN_ELEMENT_THEORY = SGP/SGP4

EPOCH          = 2026-02-22T03:15:05.409792
MEAN_MOTION    = 15.75226387
ECCENTRICITY   = .0002247
INCLINATION    = 97.2845
RA_OF_ASC_NODE = 86.3931
ARG_OF_PERICENTER = 116.1575
MEAN_ANOMALY   = 243.9922

EPHEMERIS_TYPE = 0
CLASSIFICATION_TYPE = U
NORAD_CAT_ID   = 67669
ELEMENT_SET_NO = 999
REV_AT_EPOCH   = 310
BSTAR          = .95924E-3
MEAN_MOTION_DOT = .145649E-2
MEAN_MOTION_DDOT = 0

CCSDS_OMM_VERS = 2.0
CREATION_DATE  = 
ORIGINATOR     = 

OBJECT_NAME    = STARLINK-36596
OBJECT_ID      = 2026-022Y
CENTER_NAME    = EARTH
REF_FRAME      = TEME
TIME_SYSTEM    = UTC
MEAN_ELEMENT_THEORY = SGP/SGP4

EPOCH          = 2026-02-22T03:12:33.028704
MEAN_MOTION    = 15.75186685
ECCENTRICITY   = .0001199
INCLINATION    = 97.2852
RA_OF_ASC_NODE = 86.3952
ARG_OF_PERICENTER = 101.6245
MEAN_ANOMALY   = 258.5155

EPHEMERIS_TYPE = 0
CLASSIFICATION_TYPE = U
NORAD_CAT_ID   = 67670
ELEMENT_SET_NO = 999
REV_AT_EPOCH   = 310
BSTAR          = .43503E-3
MEAN_MOTION_DOT = .65245E-3
MEAN_MOTION_DDOT = 0

CCSDS_OMM_VERS = 2.0
CREATION_DATE  = 
ORIGINATOR     = 

OBJECT_NAME    = STARLINK-36297
OBJECT_ID      = 2026-022Z
CENTER_NAME    = EARTH
REF_FRAME      = TEME
TIME_SYSTEM    = UTC
MEAN_ELEMENT_THEORY = SGP/SGP4

EPOCH          = 2026-02-22T03:09:30.208896
MEAN_MOTION    = 15.75184405
ECCENTRICITY   = .0001125
INCLINATION    = 97.2853
RA_OF_ASC_NODE = 86.3982
ARG_OF_PERICENTER = 81.4516
MEAN_ANOMALY   = 278.6877

EPHEMERIS_TYPE = 0
CLASSIFICATION_TYPE = U
NORAD_CAT_ID   = 67671
ELEMENT_SET_NO = 999
REV_AT_EPOCH   = 310
BSTAR          = .51731E-3
MEAN_MOTION_DOT = .77716E-3
MEAN_MOTION_DDOT = 0

