STARLINK-36673          
1 67660U 26022N   26053.14783239  .00104615  00000+0  69345-3 0  9996
2 67660  97.2848  86.3772 0001437  96.6789 263.4640 15.75198261  3102
STARLINK-36674          
1 67661U 26022P   26053.14642020  .00141651  00000+0  93401-3 0  9990
2 67661  97.2848  86.3795 0001231  67.4382 292.7013 15.75211940  3104
STARLINK-36700          
1 67662U 26022Q   26053.14430314  .00147320  00000+0  97047-3 0  9991
2 67662  97.2850  86.3821 0001504  74.4179 285.7252 15.75217300  3106
STARLINK-36675          
1 67663U 26022R   26053.14571492  .00100290  00000+0  66513-3 0  9994
2 67663  97.2849  86.3805 0001433  79.6557 280.4869 15.75198892  3105
STARLINK-36404          
1 67664U 26022S   26053.14253794  .00153143  00000+0  10079-2 0  9997
2 67664  97.2851  86.3834 0001483 107.0112 253.1316 15.75222873  3100
STARLINK-36399          
1 67665U 26022T   26053.14183352  .00121395  00000+0  80259-3 0  9992
2 67665  97.2852  86.3846 0001640 109.4736 250.6706 15.75208430  3106
STARLINK-36365          
1 67666U 26022U   26053.14041994  .00147008  00000+0  96812-3 0  9999
2 67666  97.2850  86.3867 0001530  96.4413 263.7026 15.75225296  3102
STARLINK-36622          
1 67667U 26022V   26053.13865700  .00121825  00000+0  80537-3 0  9994
2 67667  97.2850  86.3890 0001624  98.1738 261.9712 15.75208924  3103
STARLINK-36625          
1 67668U 26022W   26053.13724568  .00096776  00000+0  64208-3 0  9994
2 67668  97.2850  86.3906 0001765  76.8887 283.2575 15.75199848  3104
STARLINK-36639          
1 67669U 26022X   26053.13547928  .00145649  00000+0  95924-3 0  9991
2 67669  97.2845  86.3931 0002247 116.1575 243.9922 15.75226387  3103
STARLINK-36596          
1 67670U 26022Y   26053.13371561  .00065245  00000+0  43503-3 0  9990
2 67670  97.2852  86.3952 0001199 101.6245 258.5155 15.75186685  3100
STARLINK-36297          
1 67671U 26022Z   26053.13159964  .00077716  00000+0  51731-3 0  9990
2 67671  97.2853  86.3982 0001125  81.4516 278.6877 15.75184405  3102
